$$SOE
2460161.500000000, A.D. 2023-Aug-05 00:00:00.0000, 3.154541072830928E+08, 5.245540466411756E+09, 4.933519617792070E+08,
2460168.500000000, A.D. 2023-Aug-12 00:00:00.0000, 3.126261319151990E+08, 5.247693573353342E+09, 4.937888598502622E+08,
2460175.500000000, A.D. 2023-Aug-19 00:00:00.0000, 3.097979651884812E+08, 5.249844917350450E+09, 4.942255973966203E+08,
2460182.500000000, A.D. 2023-Aug-26 00:00:00.0000, 3.069696064651356E+08, 5.251994496815030E+09, 4.946621745549011E+08,
2460189.500000000, A.D. 2023-Sep-02 00:00:00.0000, 3.041410553883859E+08, 5.254142309778147E+09, 4.950985914391136E+08,
2460196.500000000, A.D. 2023-Sep-09 00:00:00.0000, 3.013123118738596E+08, 5.256288353796131E+09, 4.955348481307123E+08,
2460203.500000000, A.D. 2023-Sep-16 00:00:00.0000, 2.984833762830144E+08, 5.258432625686188E+09, 4.959709446371684E+08,
2460210.500000000, A.D. 2023-Sep-23 00:00:00.0000, 2.956542501950232E+08, 5.260575121378250E+09, 4.964068808043528E+08,
2460217.500000000, A.D. 2023-Sep-30 00:00:00.0000, 2.928249374375580E+08, 5.262715837073803E+09, 4.968426563112912E+08,
2460224.500000000, A.D. 2023-Oct-07 00:00:00.0000, 2.899954430227245E+08, 5.264854771168836E+09, 4.972782709189556E+08,
2460231.500000000, A.D. 2023-Oct-14 00:00:00.0000, 2.871657710280511E+08, 5.266991923627779E+09, 4.977137246071041E+08,
2460238.500000000, A.D. 2023-Oct-21 00:00:00.0000, 2.843359246511350E+08, 5.269127294411124E+09, 4.981490174342096E+08,
2460245.500000000, A.D. 2023-Oct-28 00:00:00.0000, 2.815059070135896E+08, 5.271260883216859E+09, 4.985841494360547E+08,
2460252.500000000, A.D. 2023-Nov-04 00:00:00.0000, 2.786757214642599E+08, 5.273392689765326E+09, 4.990191206149385E+08,
2460259.500000000, A.D. 2023-Nov-11 00:00:00.0000, 2.758453715592732E+08, 5.275522714027633E+09, 4.994539309544525E+08,
2460266.500000000, A.D. 2023-Nov-18 00:00:00.0000, 2.730148609384227E+08, 5.277650956333284E+09, 4.998885804346948E+08,
2460273.500000000, A.D. 2023-Nov-25 00:00:00.0000, 2.701841931707116E+08, 5.279777417379635E+09, 5.003230690432959E+08,
2460280.500000000, A.D. 2023-Dec-02 00:00:00.0000, 2.673533715972420E+08, 5.281902098131925E+09, 5.007573967789562E+08,
2460287.500000000, A.D. 2023-Dec-09 00:00:00.0000, 2.645223992492753E+08, 5.284024999555017E+09, 5.011915636356409E+08,
2460294.500000000, A.D. 2023-Dec-16 00:00:00.0000, 2.616912791290082E+08, 5.286146122189391E+09, 5.016255695421154E+08,
2460301.500000000, A.D. 2023-Dec-23 00:00:00.0000, 2.588600152015208E+08, 5.288265466258827E+09, 5.020594142810290E+08,
2460308.500000000, A.D. 2023-Dec-30 00:00:00.0000, 2.560286127576740E+08, 5.290383033359055E+09, 5.024930975960670E+08,
2460315.500000000, A.D. 2024-Jan-06 00:00:00.0000, 2.531970763755046E+08, 5.292498827366640E+09, 5.029266194566824E+08,
2460322.500000000, A.D. 2024-Jan-13 00:00:00.0000, 2.503654086528635E+08, 5.294612852761214E+09, 5.033599800414917E+08,
2460329.500000000, A.D. 2024-Jan-20 00:00:00.0000, 2.475336109348542E+08, 5.296725113445594E+09, 5.037931795799322E+08,
2460336.500000000, A.D. 2024-Jan-27 00:00:00.0000, 2.447016840073330E+08, 5.298835612716046E+09, 5.042262182913253E+08,
2460343.500000000, A.D. 2024-Feb-03 00:00:00.0000, 2.418696283280996E+08, 5.300944353434014E+09, 5.046590963828607E+08,
2460350.500000000, A.D. 2024-Feb-10 00:00:00.0000, 2.390374440731417E+08, 5.303051338108251E+09, 5.050918140570767E+08,
2460357.500000000, A.D. 2024-Feb-17 00:00:00.0000, 2.362051311366325E+08, 5.305156568895226E+09, 5.055243715165629E+08,
2460364.500000000, A.D. 2024-Feb-24 00:00:00.0000, 2.333726891206188E+08, 5.307260047532653E+09, 5.059567689636755E+08,
2460371.500000000, A.D. 2024-Mar-02 00:00:00.0000, 2.305401173437475E+08, 5.309361775173560E+09, 5.063890065897853E+08,
2460378.500000000, A.D. 2024-Mar-09 00:00:00.0000, 2.277074150078398E+08, 5.311461752058105E+09, 5.068210845361328E+08,
2460385.500000000, A.D. 2024-Mar-16 00:00:00.0000, 2.248745819176158E+08, 5.313559977220343E+09, 5.072530028060715E+08,
2460392.500000000, A.D. 2024-Mar-23 00:00:00.0000, 2.220416196499954E+08, 5.315656449339044E+09, 5.076847612288218E+08,
2460399.500000000, A.D. 2024-Mar-30 00:00:00.0000, 2.192085309318276E+08, 5.317751168705725E+09, 5.081163596780753E+08,
2460406.500000000, A.D. 2024-Apr-06 00:00:00.0000, 2.163753174820824E+08, 5.319844136942313E+09, 5.085477982467473E+08,
2460413.500000000, A.D. 2024-Apr-13 00:00:00.0000, 2.135419798696376E+08, 5.321935355304846E+09, 5.089790771205323E+08,
2460420.500000000, A.D. 2024-Apr-20 00:00:00.0000, 2.107085184345119E+08, 5.324024824249870E+09, 5.094101964563332E+08,
2460427.500000000, A.D. 2024-Apr-27 00:00:00.0000, 2.078749337555253E+08, 5.326112543702168E+09, 5.098411563588727E+08,
2460434.500000000, A.D. 2024-May-04 00:00:00.0000, 2.050412267523030E+08, 5.328198513320498E+09, 5.102719568900104E+08,
2460441.500000000, A.D. 2024-May-11 00:00:00.0000, 2.022073986599629E+08, 5.330282732659718E+09, 5.107025980806837E+08,
2460448.500000000, A.D. 2024-May-18 00:00:00.0000, 1.993734509584734E+08, 5.332365201251218E+09, 5.111330799398525E+08,
2460455.500000000, A.D. 2024-May-25 00:00:00.0000, 1.965393852814004E+08, 5.334445918594820E+09, 5.115634024577889E+08,
2460462.500000000, A.D. 2024-Jun-01 00:00:00.0000, 1.937052033638894E+08, 5.336524884005066E+09, 5.119935655937285E+08,
2460469.500000000, A.D. 2024-Jun-08 00:00:00.0000, 1.908709072762442E+08, 5.338602096289241E+09, 5.124235692236860E+08,
2460476.500000000, A.D. 2024-Jun-15 00:00:00.0000, 1.880365003426249E+08, 5.340677553802501E+09, 5.128534130565677E+08,
2460483.500000000, A.D. 2024-Jun-22 00:00:00.0000, 1.852019877396441E+08, 5.342751256055467E+09, 5.132830967071128E+08,
2460490.500000000, A.D. 2024-Jun-29 00:00:00.0000, 1.823673746532343E+08, 5.344823205053713E+09, 5.137126199717062E+08,
2460497.500000000, A.D. 2024-Jul-06 00:00:00.0000, 1.795326646387883E+08, 5.346893403898120E+09, 5.141419828627422E+08,
2460504.500000000, A.D. 2024-Jul-13 00:00:00.0000, 1.766978601338246E+08, 5.348961855470350E+09, 5.145711854536917E+08,
2460511.500000000, A.D. 2024-Jul-20 00:00:00.0000, 1.738629631375235E+08, 5.351028562352143E+09, 5.150002278109741E+08,
2460518.500000000, A.D. 2024-Jul-27 00:00:00.0000, 1.710279754011365E+08, 5.353093527019043E+09, 5.154291099943962E+08,
2460525.500000000, A.D. 2024-Aug-03 00:00:00.0000, 1.681928984022043E+08, 5.355156751933689E+09, 5.158578320704274E+08,
2460532.500000000, A.D. 2024-Aug-10 00:00:00.0000, 1.653577332683552E+08, 5.357218239534421E+09, 5.162863941225750E+08,
2460539.500000000, A.D. 2024-Aug-17 00:00:00.0000, 1.625224806980137E+08, 5.359277992141201E+09, 5.167147962561333E+08,
2460546.500000000, A.D. 2024-Aug-24 00:00:00.0000, 1.596871409058557E+08, 5.361336011756960E+09, 5.171430385926676E+08,
2460553.500000000, A.D. 2024-Aug-31 00:00:00.0000, 1.568517137086315E+08, 5.363392299703265E+09, 5.175711212383654E+08,
2460560.500000000, A.D. 2024-Sep-07 00:00:00.0000, 1.540161991168544E+08, 5.365446856217019E+09, 5.179990442027767E+08,
2460567.500000000, A.D. 2024-Sep-14 00:00:00.0000, 1.511805985176058E+08, 5.367499681004375E+09, 5.184268073412905E+08,
2460574.500000000, A.D. 2024-Sep-21 00:00:00.0000, 1.483449144196184E+08, 5.369550775164683E+09, 5.188544105409067E+08,
2460581.500000000, A.D. 2024-Sep-28 00:00:00.0000, 1.455091482731498E+08, 5.371600141257000E+09, 5.192818539300830E+08,
2460588.500000000, A.D. 2024-Oct-05 00:00:00.0000, 1.426733000343471E+08, 5.373647781510944E+09, 5.197091377760525E+08,
2460595.500000000, A.D. 2024-Oct-12 00:00:00.0000, 1.398373691134778E+08, 5.375693697162176E+09, 5.201362623461416E+08,
2460602.500000000, A.D. 2024-Oct-19 00:00:00.0000, 1.370013549561073E+08, 5.377737888641768E+09, 5.205632278714886E+08,
2460609.500000000, A.D. 2024-Oct-26 00:00:00.0000, 1.341652572248834E+08, 5.379780355818321E+09, 5.209900345506310E+08,
2460616.500000000, A.D. 2024-Nov-02 00:00:00.0000, 1.313290758393632E+08, 5.381821098144636E+09, 5.214166825572400E+08,
2460623.500000000, A.D. 2024-Nov-09 00:00:00.0000, 1.284928109706175E+08, 5.383860114729941E+09, 5.218431720448458E+08,
2460630.500000000, A.D. 2024-Nov-16 00:00:00.0000, 1.256564630166678E+08, 5.385897404338218E+09, 5.222695031462791E+08,
2460637.500000000, A.D. 2024-Nov-23 00:00:00.0000, 1.228200326058386E+08, 5.387932965263034E+09, 5.226956759594760E+08,
2460644.500000000, A.D. 2024-Nov-30 00:00:00.0000, 1.199835208364519E+08, 5.389966795036467E+09, 5.231216904971657E+08,
2460651.500000000, A.D. 2024-Dec-07 00:00:00.0000, 1.171469301724145E+08, 5.391998890392980E+09, 5.235475465964327E+08,
2460658.500000000, A.D. 2024-Dec-14 00:00:00.0000, 1.143102653061599E+08, 5.394029248712385E+09, 5.239732439514539E+08,
2460665.500000000, A.D. 2024-Dec-21 00:00:00.0000, 1.114735316704610E+08, 5.396057869701290E+09, 5.243987823808494E+08,
2460672.500000000, A.D. 2024-Dec-28 00:00:00.0000, 1.086367335716353E+08, 5.398084754345747E+09, 5.248241619063740E+08,
2460679.500000000, A.D. 2025-Jan-04 00:00:00.0000, 1.057998745414277E+08, 5.400109903511375E+09, 5.252493825991561E+08,
2460686.500000000, A.D. 2025-Jan-11 00:00:00.0000, 1.029629580864056E+08, 5.402133317850832E+09, 5.256744444963725E+08,
2460693.500000000, A.D. 2025-Jan-18 00:00:00.0000, 1.001259879180460E+08, 5.404154998099840E+09, 5.260993475976589E+08,
2460700.500000000, A.D. 2025-Jan-25 00:00:00.0000, 9.728896790714040E+07, 5.406174945287287E+09, 5.265240918803797E+08,
2460707.500000000, A.D. 2025-Feb-01 00:00:00.0000, 9.445190195215027E+07, 5.408193160829194E+09, 5.269486773141956E+08,
2460714.500000000, A.D. 2025-Feb-08 00:00:00.0000, 9.161479382003923E+07, 5.410209646526286E+09, 5.273731038714163E+08,
2460721.500000000, A.D. 2025-Feb-15 00:00:00.0000, 8.877764698848660E+07, 5.412224404445110E+09, 5.277973715290580E+08,
2460728.500000000, A.D. 2025-Feb-22 00:00:00.0000, 8.594046458874510E+07, 5.414237436618754E+09, 5.282214802484462E+08,
2460735.500000000, A.D. 2025-Mar-01 00:00:00.0000, 8.310324978426336E+07, 5.416248744632649E+09, 5.286454299070542E+08,
$$EOE